start=new Date('2022-01-28T00:00:00.000Z').valueOf();
sats=[{"CENTER_NAME":"EARTH","TLE_LINE2":"2 45058  53.0524 193.1338 0002097  86.6889 273.4340 15.06400982109956","CLASSIFICATION_TYPE":"U","LAUNCH_DATE":"2020-01-29","ECCENTRICITY":"0.00020970","REF_FRAME":"TEME","TIME_SYSTEM":"UTC","OBJECT_ID":"2020-006Q","OBJECT_TYPE":"PAYLOAD","NORAD_CAT_ID":"45058","MEAN_ANOMALY":"273.4340","ELEMENT_SET_NO":"999","SITE":"AFETR","ARG_OF_PERICENTER":"86.6889","COUNTRY_CODE":"US","TLE_LINE1":"1 45058U 20006Q   22026.84981532  .00001243  00000-0  10235-3 0  9996","PERIOD":"95.592","EPHEMERIS_TYPE":"0","FILE":"3284696","EPOCH":"2022-01-26T20:23:44.043648","DECAY_DATE":null,"MEAN_MOTION_DDOT":"0.0000000000000","RA_OF_ASC_NODE":"193.1338","MEAN_MOTION_DOT":"0.00001243","PERIAPSIS":"545.758","MEAN_MOTION":"15.06400982","MEAN_ELEMENT_THEORY":"SGP4","BSTAR":"0.00010235000000","INCLINATION":"53.0524","RCS_SIZE":"LARGE","REV_AT_EPOCH":"10995","GP_ID":"194709011","APOAPSIS":"548.663","OBJECT_NAME":"STARLINK-1162","SEMIMAJOR_AXIS":"6925.346"},{"GP_ID":"194739741","SEMIMAJOR_AXIS":"6925.320","APOAPSIS":"548.825","OBJECT_NAME":"STARLINK-1165","REV_AT_EPOCH":"11005","RCS_SIZE":"LARGE","BSTAR":"0.00012153000000","INCLINATION":"53.0543","MEAN_MOTION":"15.06409399","PERIAPSIS":"545.544","MEAN_ELEMENT_THEORY":"SGP4","MEAN_MOTION_DOT":"0.00001529","DECAY_DATE":null,"RA_OF_ASC_NODE":"190.0549","MEAN_MOTION_DDOT":"0.0000000000000","EPOCH":"2022-01-27T12:50:59.815392","EPHEMERIS_TYPE":"0","FILE":"3284946","TLE_LINE1":"1 45059U 20006R   22027.53541453  .00001529  00000-0  12153-3 0  9996","PERIOD":"95.592","ELEMENT_SET_NO":"999","ARG_OF_PERICENTER":"87.2508","COUNTRY_CODE":"US","SITE":"AFETR","OBJECT_TYPE":"PAYLOAD","MEAN_ANOMALY":"272.8752","NORAD_CAT_ID":"45059","REF_FRAME":"TEME","OBJECT_ID":"2020-006R","TIME_SYSTEM":"UTC","LAUNCH_DATE":"2020-01-29","CLASSIFICATION_TYPE":"U","ECCENTRICITY":"0.00023690","CENTER_NAME":"EARTH","TLE_LINE2":"2 45059  53.0543 190.0549 0002369  87.2508 272.8752 15.06409399110059"},{"INCLINATION":"53.0536","BSTAR":"-0.00001769100000","RCS_SIZE":"LARGE","REV_AT_EPOCH":"11005","APOAPSIS":"548.636","OBJECT_NAME":"STARLINK-1166","SEMIMAJOR_AXIS":"6925.354","GP_ID":"194739998","EPOCH":"2022-01-27T12:45:40.329792","MEAN_MOTION_DDOT":"0.0000000000000","RA_OF_ASC_NODE":"190.0724","DECAY_DATE":null,"MEAN_MOTION_DOT":"-0.00000545","MEAN_ELEMENT_THEORY":"SGP4","PERIAPSIS":"545.802","MEAN_MOTION":"15.06398129","SITE":"AFETR","ARG_OF_PERICENTER":"79.9669","COUNTRY_CODE":"US","ELEMENT_SET_NO":"999","TLE_LINE1":"1 45060U 20006S   22027.53171678 -.00000545  00000-0 -17691-4 0  9998","PERIOD":"95.592","EPHEMERIS_TYPE":"0","FILE":"3284946","TLE_LINE2":"2 45060  53.0536 190.0724 0002046  79.9669 280.1551 15.06398129110053","CENTER_NAME":"EARTH","LAUNCH_DATE":"2020-01-29","CLASSIFICATION_TYPE":"U","ECCENTRICITY":"0.00020460","TIME_SYSTEM":"UTC","OBJECT_ID":"2020-006S","REF_FRAME":"TEME","NORAD_CAT_ID":"45060","MEAN_ANOMALY":"280.1551","OBJECT_TYPE":"PAYLOAD"},{"FILE":"3284946","EPHEMERIS_TYPE":"0","TLE_LINE1":"1 45061U 20006T   22027.47272634  .00002205  00000-0  16683-3 0  9998","PERIOD":"95.591","COUNTRY_CODE":"US","ARG_OF_PERICENTER":"89.4952","SITE":"AFETR","ELEMENT_SET_NO":"999","MEAN_ANOMALY":"270.6261","NORAD_CAT_ID":"45061","OBJECT_TYPE":"PAYLOAD","OBJECT_ID":"2020-006T","TIME_SYSTEM":"UTC","REF_FRAME":"TEME","CLASSIFICATION_TYPE":"U","LAUNCH_DATE":"2020-01-29","ECCENTRICITY":"0.00019490","TLE_LINE2":"2 45061  53.0546 190.3456 0001949  89.4952 270.6261 15.06418178110040","CENTER_NAME":"EARTH","SEMIMAJOR_AXIS":"6925.293","APOAPSIS":"548.508","OBJECT_NAME":"STARLINK-1169","GP_ID":"194740241","REV_AT_EPOCH":"11004","RCS_SIZE":"LARGE","INCLINATION":"53.0546","BSTAR":"0.00016683000000","MEAN_ELEMENT_THEORY":"SGP4","MEAN_MOTION":"15.06418178","PERIAPSIS":"545.808","MEAN_MOTION_DOT":"0.00002205","RA_OF_ASC_NODE":"190.3456","MEAN_MOTION_DDOT":"0.0000000000000","DECAY_DATE":null,"EPOCH":"2022-01-27T11:20:43.555776"},{"PERIAPSIS":"545.623","MEAN_MOTION":"15.06401154","MEAN_ELEMENT_THEORY":"SGP4","MEAN_MOTION_DOT":"0.00001274","DECAY_DATE":null,"MEAN_MOTION_DDOT":"0.0000000000000","RA_OF_ASC_NODE":"189.7984","EPOCH":"2022-01-27T14:10:35.563296","GP_ID":"194738997","OBJECT_NAME":"STARLINK-1171","APOAPSIS":"548.797","SEMIMAJOR_AXIS":"6925.345","RCS_SIZE":"LARGE","REV_AT_EPOCH":"11006","BSTAR":"0.00010444000000","INCLINATION":"53.0540","OBJECT_TYPE":"PAYLOAD","NORAD_CAT_ID":"45062","MEAN_ANOMALY":"273.8257","REF_FRAME":"TEME","TIME_SYSTEM":"UTC","OBJECT_ID":"2020-006U","ECCENTRICITY":"0.00022910","LAUNCH_DATE":"2020-01-29","CLASSIFICATION_TYPE":"U","CENTER_NAME":"EARTH","TLE_LINE2":"2 45062  53.0540 189.7984 0002291  86.2994 273.8257 15.06401154110063","FILE":"3284946","EPHEMERIS_TYPE":"0","PERIOD":"95.592","TLE_LINE1":"1 45062U 20006U   22027.59068939  .00001274  00000-0  10444-3 0  9997","ELEMENT_SET_NO":"999","SITE":"AFETR","COUNTRY_CODE":"US","ARG_OF_PERICENTER":"86.2994"},{"OBJECT_TYPE":"PAYLOAD","NORAD_CAT_ID":"45064","MEAN_ANOMALY":"270.7527","REF_FRAME":"TEME","TIME_SYSTEM":"UTC","OBJECT_ID":"2020-006W","LAUNCH_DATE":"2020-01-29","CLASSIFICATION_TYPE":"U","ECCENTRICITY":"0.00019820","CENTER_NAME":"EARTH","TLE_LINE2":"2 45064  53.0558 170.0335 0001982  89.3689 270.7527 15.06404527110331","EPHEMERIS_TYPE":"0","FILE":"3284946","TLE_LINE1":"1 45064U 20006W   22027.53723781  .00000149  00000-0  28899-4 0  9990","PERIOD":"95.592","ELEMENT_SET_NO":"999","SITE":"AFETR","ARG_OF_PERICENTER":"89.3689","COUNTRY_CODE":"US","PERIAPSIS":"545.827","MEAN_MOTION":"15.06404527","MEAN_ELEMENT_THEORY":"SGP4","MEAN_MOTION_DOT":"0.00000149","DECAY_DATE":null,"RA_OF_ASC_NODE":"170.0335","MEAN_MOTION_DDOT":"0.0000000000000","EPOCH":"2022-01-27T12:53:37.346784","GP_ID":"194739242","APOAPSIS":"548.572","OBJECT_NAME":"STARLINK-1133","SEMIMAJOR_AXIS":"6925.335","RCS_SIZE":"LARGE","REV_AT_EPOCH":"11033","BSTAR":"0.00002889900000","INCLINATION":"53.0558"},{"OBJECT_TYPE":"PAYLOAD","MEAN_ANOMALY":"271.8305","NORAD_CAT_ID":"45065","REF_FRAME":"TEME","OBJECT_ID":"2020-006X","TIME_SYSTEM":"UTC","ECCENTRICITY":"0.00020950","LAUNCH_DATE":"2020-01-29","CLASSIFICATION_TYPE":"U","CENTER_NAME":"EARTH","TLE_LINE2":"2 45065  53.0539 170.0368 0002095  88.2924 271.8305 15.06410036110331","FILE":"3284946","EPHEMERIS_TYPE":"0","TLE_LINE1":"1 45065U 20006X   22027.54092840 -.00000821  00000-0 -36173-4 0  9990","PERIOD":"95.592","ELEMENT_SET_NO":"999","COUNTRY_CODE":"US","ARG_OF_PERICENTER":"88.2924","SITE":"AFETR","MEAN_MOTION":"15.06410036","PERIAPSIS":"545.732","MEAN_ELEMENT_THEORY":"SGP4","MEAN_MOTION_DOT":"-0.00000821","DECAY_DATE":null,"RA_OF_ASC_NODE":"170.0368","MEAN_MOTION_DDOT":"0.0000000000000","EPOCH":"2022-01-27T12:58:56.213760","GP_ID":"194740498","SEMIMAJOR_AXIS":"6925.318","OBJECT_NAME":"STARLINK-1139","APOAPSIS":"548.634","REV_AT_EPOCH":"11033","RCS_SIZE":"LARGE","BSTAR":"-0.00003617300000","INCLINATION":"53.0539"},{"DECAY_DATE":null,"MEAN_MOTION_DDOT":"0.0000000000000","RA_OF_ASC_NODE":"169.8554","EPOCH":"2022-01-27T13:57:19.424448","MEAN_MOTION":"15.06394524","PERIAPSIS":"545.873","MEAN_ELEMENT_THEORY":"SGP4","MEAN_MOTION_DOT":"0.00000231","REV_AT_EPOCH":"11033","RCS_SIZE":"LARGE","BSTAR":"0.00003442700000","INCLINATION":"53.0537","GP_ID":"194740741","SEMIMAJOR_AXIS":"6925.365","OBJECT_NAME":"STARLINK-1145","APOAPSIS":"548.588","LAUNCH_DATE":"2020-01-29","CLASSIFICATION_TYPE":"U","ECCENTRICITY":"0.00019600","CENTER_NAME":"EARTH","TLE_LINE2":"2 45066  53.0537 169.8554 0001960  88.8910 271.2303 15.06394524110339","OBJECT_TYPE":"PAYLOAD","MEAN_ANOMALY":"271.2303","NORAD_CAT_ID":"45066","REF_FRAME":"TEME","OBJECT_ID":"2020-006Y","TIME_SYSTEM":"UTC","TLE_LINE1":"1 45066U 20006Y   22027.58147482  .00000231  00000-0  34427-4 0  9991","PERIOD":"95.592","ELEMENT_SET_NO":"999","COUNTRY_CODE":"US","ARG_OF_PERICENTER":"88.8910","SITE":"AFETR","FILE":"3284946","EPHEMERIS_TYPE":"0"},{"BSTAR":"0.00013118000000","INCLINATION":"53.0536","RCS_SIZE":"LARGE","REV_AT_EPOCH":"11033","GP_ID":"194739497","OBJECT_NAME":"STARLINK-1150","APOAPSIS":"548.613","SEMIMAJOR_AXIS":"6925.342","EPOCH":"2022-01-27T12:43:00.289344","DECAY_DATE":null,"MEAN_MOTION_DDOT":"0.0000000000000","RA_OF_ASC_NODE":"170.0663","MEAN_MOTION_DOT":"0.00001673","PERIAPSIS":"545.800","MEAN_MOTION":"15.06402222","MEAN_ELEMENT_THEORY":"SGP4","ELEMENT_SET_NO":"999","SITE":"AFETR","COUNTRY_CODE":"US","ARG_OF_PERICENTER":"88.9293","TLE_LINE1":"1 45067U 20006Z   22027.52986446  .00001673  00000-0  13118-3 0  9991","PERIOD":"95.592","FILE":"3284946","EPHEMERIS_TYPE":"0","CENTER_NAME":"EARTH","TLE_LINE2":"2 45067  53.0536 170.0663 0002031  88.9293 271.1929 15.06402222110337","LAUNCH_DATE":"2020-01-29","CLASSIFICATION_TYPE":"U","ECCENTRICITY":"0.00020310","REF_FRAME":"TEME","TIME_SYSTEM":"UTC","OBJECT_ID":"2020-006Z","OBJECT_TYPE":"PAYLOAD","NORAD_CAT_ID":"45067","MEAN_ANOMALY":"271.1929"},{"OBJECT_TYPE":"PAYLOAD","MEAN_ANOMALY":"289.7008","NORAD_CAT_ID":"45068","REF_FRAME":"TEME","OBJECT_ID":"2020-006AA","TIME_SYSTEM":"UTC","CLASSIFICATION_TYPE":"U","LAUNCH_DATE":"2020-01-29","ECCENTRICITY":"0.00015240","CENTER_NAME":"EARTH","TLE_LINE2":"2 45068  53.0544 169.7768 0001524  70.4146 289.7008 15.07225988110333","EPHEMERIS_TYPE":"0","FILE":"3284946","TLE_LINE1":"1 45068U 20006AA  22027.57488218 -.00003391  00000-0 -20409-3 0  9993","PERIOD":"95.540","ELEMENT_SET_NO":"999","COUNTRY_CODE":"US","ARG_OF_PERICENTER":"70.4146","SITE":"AFETR","MEAN_MOTION":"15.07225988","PERIAPSIS":"543.628","MEAN_ELEMENT_THEORY":"SGP4","MEAN_MOTION_DOT":"-0.00003391","DECAY_DATE":null,"RA_OF_ASC_NODE":"169.7768","MEAN_MOTION_DDOT":"0.0000000000000","EPOCH":"2022-01-27T13:47:49.820352","GP_ID":"194739742","SEMIMAJOR_AXIS":"6922.818","APOAPSIS":"545.738","OBJECT_NAME":"STARLINK-1161","REV_AT_EPOCH":"11033","RCS_SIZE":"LARGE","BSTAR":"-0.00020409000000","INCLINATION":"53.0544"}];
